    PK13R03a  2018 12  5.4425  2.204738  0.274199   10.5418  342.2390    0.8663  20170314   9.0  4.0  P/2013 R3-A (Catalina-PANSTARRS)                         unp
    PK13R03b  2018 12  5.6285  2.204762  0.274245   10.4760  342.2950    0.8675  20170314   9.0  4.0  P/2013 R3-B (Catalina-PANSTARRS)                         MPEC 2015-M77
    CK13S010  2013 08  2.5593  2.821237  0.999190  165.9881  221.5959   83.9569  20170314  13.0  4.0  C/2013 S1 (Catalina)                                     MPC 86230
    PK13T010  2013 07 29.7273  2.220840  0.621817  346.1351   10.1485   24.2170  20170314  16.5  4.0  P/2013 T1 (PANSTARRS)                                    MPC 85835
    PK13T020  2019 11 27.2587  1.712330  0.507237  345.6110    1.1229    9.5699  20170314  16.0  4.0  P/2013 T2 (Schwartz)                                     MPC 86643
    CK13T05W  2014 08 18.0776  5.835259  0.980147  190.5036  319.6918   31.4050  20170314   7.5  4.0  C/2013 TW5 (Spacewatch)                                  MPC 10027
    PK13TB7L  2014 02 17.9085  1.120297  0.689351  112.2986    3.3108    9.3650  20170314  17.5  4.0  P/2013 TL117 (Lemmon)                                    MPC 88696
    CK13U010  2013 11 18.2233  2.418395  0.796599  143.1037  211.2505   23.9404  20170314  13.5  4.0  C/2013 U1 (Catalina)                                     MPC 86643
    CK13U020  2014 10 27.9184  5.139733  0.992550  107.9254    6.8843   43.2341  20170314   7.5  4.0  C/2013 U2 (Holvorcem)                                    MPC102095
    CK13U04Q  2014 07  4.7602  1.088390  0.981297   23.6114  317.8484  145.0364  20170314  13.5  4.0  C/2013 UQ4 (Catalina)                                    MPC102951
    CK13U10S  2015 11 15.6962  0.823548  1.000289  340.3791  186.1477  148.8784  20170314   4.4  4.0  C/2013 US10 (Catalina)                                   MPC103844
    CK13V010  2014 04 21.3178  1.666842  1.002005   48.1719   72.8241   65.1391  20170314  10.5  4.0  C/2013 V1 (Boattini)                                     MPC102951
    CK13V020  2014 10 14.0585  3.510085  1.002729   94.5053   48.4084   37.8514  20170314   7.0  4.0  C/2013 V2 (Borisov)                                      MPC 10027
    CK13V030  2013 10 28.9836  1.390113  0.890064  339.6307  100.9478   32.1249  20170314  14.0  4.0  C/2013 V3 (Nevski)                                       MPC 88329
    CK13V040  2015 10  7.6088  5.185781  1.001710   40.4553   55.6331   67.8597  20170314   6.0  4.0  C/2013 V4 (Catalina)                                     MPC103844
    CK13V050  2014 09 27.5354  0.627275  0.998181  314.8548  278.9082  154.8662  20170314   9.0  4.0  C/2013 V5 (Oukaimeden)                                   MPC102951
    PK13W010  2014 03  7.8559  1.418388  0.593237    1.3672  117.8598    4.6982  20170314  17.5  4.0  P/2013 W1 (PANSTARRS)                                    MPC 91613
    CK13W020  2014 12  3.5907  4.380064  0.554180  304.4654  178.5695    4.8644  20170314  13.5  2.0  C/2013 W2 (PANSTARRS)                                    MPC 10027
    CK13X010  2016 04 20.7342  1.315096  1.001177  164.5363  131.0057  163.2318  20170314  10.5  2.0  C/2013 X1 (PANSTARRS)                                    MPC103844
    CK13Y020  2014 06 13.7613  1.921422  0.991814  308.9700  243.3383   29.3984  20170314  12.0  4.0  C/2013 Y2 (PANSTARRS)                                    MPC 90768
    PK13Y46G  2017 01 29.5049  1.787656  0.454259  242.3821   48.9085    7.8591  20170314  10.0  4.0  P/2013 YG46 (Spacewatch)                                 MPC101095
    PK14A020  2013 10 27.5955  2.079831  0.648689  356.2872  106.6653   24.5166  20170314  15.0  4.0  P/2014 A2 (Hill)                                         MPC 89728
    PK14A030  2013 04 12.0933  3.536446  0.240559  212.3567  230.4596   13.6939  20170314  12.0  4.0  P/2014 A3 (PANSTARRS)                                    MPC 92981
    CK14A040  2015 09  5.6766  4.179208  1.000735  356.7588   29.7340  121.3677  20170314   6.0  4.0  C/2014 A4 (SONEAR)                                       MPC103844
    CK14A050  2014 08 10.8924  4.801247  0.944967  182.4294  310.0443   31.9730  20170314  10.0  4.0  C/2014 A5 (PANSTARRS)                                    MPC 93585
    CK14A52A  2015 02 27.6834  2.000939  1.000565  292.2235  330.4828  105.1999  20170314  10.0  4.0  C/2014 AA52 (Catalina)                                   MPC 96865
    CK14B010  2017 09 10.0664  9.556758  1.004307  345.8182  161.3979   28.3691  20170314   4.0  4.0  C/2014 B1 (Schwartz)                                     MPC103844
    PK14C010  2019 04 13.0460  1.684985  0.446554   24.0714  167.8595    2.6809  20170314  15.5  4.0  P/2014 C1 (TOTAS)                                        MPC102095
    CK14C020  2014 02 18.0083  0.513399  0.999160   56.0980  283.4095  135.5714  20170314  18.0  4.0  C/2014 C2 (STEREO)                                       MPC 88697
    CK14C030  2014 01 16.3396  1.865032  0.982464  345.9818  204.4937  151.7967  20170314  14.0  4.0  C/2014 C3 (NEOWISE)                                      MPC 90272
    PK14E010  2014 05 22.5363  2.140085  0.423779  185.8759   39.0633   15.9833  20170314  14.0  4.0  P/2014 E1 (Larson)                                       MPC 91614
    CK14E020  2014 07  2.6270  0.662318  0.999131  344.1021   56.5083  156.3567  20170314   7.1  4.4  C/2014 E2 (Jacques)                                      MPC102951
    CK14F010  2013 10  4.5415  3.499970  0.998136    8.2592  239.8479  108.2611  20170314  10.5  4.0  C/2014 F1 (Hill)                                         MPC 90769
    CK14F020  2015 01  2.6567  4.316525  0.970469   86.1136  267.4476  119.0715  20170314   9.5  4.0  C/2014 F2 (Tenagra)                                      MPC 97495
    CK14F030  2021 05  2.3720  5.730847  0.646980    1.0118  327.5105    6.4813  20170314   6.0  4.0  C/2014 F3 (Sheppard-Trujillo)                            MPC 94280
    CK14G010  2013 11  5.5035  5.476599  0.990889   77.1240  337.9600  165.6339  20170314   9.0  4.0  C/2014 G1 (PANSTARRS)                                    MPC 90272
    CK14G030  2015 02  2.1345  4.700807  0.911699  148.0049    4.7043  156.0709  20170314   9.0  4.0  C/2014 G3 (PANSTARRS)                                    MPC101095
    CK14H010  2014 04 15.2084  2.142446  0.984364  169.2481   34.6644   99.9385  20170314  14.5  4.0  C/2014 H1 (Christensen)                                  MPC 88697
    CK14HJ5U  2015 05 18.3862  5.121484  0.766516  145.1008  115.7862    5.8209  20170314  10.5  4.0  C/2014 HU195                                             MPEC 2016-VB6
    CK14J010  2014 06 19.8257  1.710590  0.802446  195.5279   41.9723  159.7034  20170314  17.0  4.0  C/2014 J1 (Catalina)                                     MPC 89010
    PK14L020  2014 07 15.1630  2.232144  0.646352  182.6846  149.4012    5.1850  20170314  12.0  4.0  P/2014 L2 (NEOWISE)                                      MPC 93585
    PK14L030  2014 06 28.7140  1.850296  0.773131  178.5477  115.5348    6.2663  20170314  16.0  4.0  P/2014 L3 (Hill)                                         MPC 90769
    CK14L050  2014 11 25.6152  6.201700  1.001609   45.5733   35.7180  122.8139  20170314   8.0  4.0  C/2014 L5 (Lemmon)                                       MPC 95731
    CK14M010  2015 08 27.3661  5.580775  1.001873  336.8709  234.6981  160.1887  20170314   9.0  4.0  C/2014 M1 (PANSTARRS)                                    MPC103844
    CK14M020  2014 07 18.3031  6.908159  0.994466   40.7479  245.2771   32.4003  20170314   6.0  4.0  C/2014 M2 (Christensen)                                  MPC 95732
    CK14M030  2014 06 21.5530  2.431484  0.981605   93.6495   80.3683  164.9043  20170314  14.0  4.0  C/2014 M3 (Catalina)                                     MPC 90769
    PK14M040  2014 12 28.5031  2.377147  0.595753  147.5150  263.7022    3.3299  20170314  15.0  4.0  P/2014 M4 (PANSTARRS)                                    MPC 91614
    PK14M04G  2013 06 13.7174  3.709452  0.259836  298.7709  311.8221    9.3657  20170314   9.5  4.0  P/2014 MG4 (Spacewatch-PANSTARRS)                        MPC103844
    CK14N020  2014 10  7.8738  2.189642  0.999253  238.0183  143.8734  132.8757  20170314  14.5  4.0  C/2014 N2 (PANSTARRS)                                    MPC 93586
    CK14N030  2015 03 12.8820  3.880599  0.998467  353.5108   19.9341   61.6436  20170314   7.0  4.0  C/2014 N3 (NEOWISE)                                      MPC103844
    PK14O030  2014 04 17.1194  4.637132  0.385572  204.3065   87.6626    7.8063  20170314  10.5  4.0  P/2014 O3 (PANSTARRS)                                    MPC 98560
    CK14O04E  2016 12 10.8179  6.244356  0.999567   65.7498  240.3968   81.3477  20170314  11.0  2.0  C/2014 OE4 (PANSTARRS)                                   MPC103844
    CK14Q010  2015 07  6.4405  0.315321  0.999755  120.0982    8.7408   43.1093  20170314   8.0  4.0  C/2014 Q1 (PANSTARRS)                                    MPC100578
    CK14Q020  2015 01 29.9542  1.291296  0.997620   12.4076   95.0007   80.2748  20170314   2.7 10.0  C/2014 Q2 (Lovejoy)                                      MPC103844
    CK14Q02U  2014 07  9.7537  2.219865  0.990518  320.3708  332.9892  124.8156  20170314  15.0  4.0  C/2014 QU2 (PANSTARRS)                                   MPC 90770
    CK14Q030  2014 11 18.8957  1.648134  0.941766   47.3865   63.1393   89.9106  20170314  -0.5 20.0  C/2014 Q3 (Borisov)                                      MPC102952
    CK14Q060  2015 01  5.9829  4.220477  0.998746    2.4733  326.6395   49.7934  20170314   9.5  4.0  C/2014 Q6 (PANSTARRS)                                    MPC 95732
    CK14R010  2014 11 19.2004  1.347318  0.992656   55.7046  104.0505    9.9262  20170314   6.5  8.8  C/2014 R1 (Borisov)                                      MPC 95211
    CK14R030  2016 08  8.1917  7.275602  0.999497  113.4230  334.1088   90.8393  20170314   6.5  4.0  C/2014 R3 (PANSTARRS)                                    MPC103844
